NORAD_CAT_ID,OBJECT_NAME,OBJECT_TYPE,EPOCH,MEAN_MOTION,ECCENTRICITY,INCLINATION,RA_OF_ASC_NODE,ARG_OF_PERICENTER,MEAN_ANOMALY,BSTAR,MEAN_MOTION_DOT,MEAN_MOTION_DDOT,TLE_LINE0,TLE_LINE1,TLE_LINE2,SEMIMAJOR_AXIS,PERIOD,APOGEE,PERIGEE,DECAYED
55741.0,STARLINK-5592,PAYLOAD,2024-04-23 13:47:25,14.98317486,0.0002839,70.0013,171.9952,256.5819,103.5023,0.00030707,3.572e-05,0.0,0 STARLINK-5592,1 55741U 23028A   24114.57459717  .00003572  00000-0  30707-3 0  9991,2 55741  70.0013 171.9952 0002839 256.5819 103.5023 14.98317486 63607,6950.232,96.108,574.07,570.123,0.0
55741.0,STARLINK-5592,PAYLOAD,2024-04-24 04:12:37,14.98335091,0.000298,70.0011,170.4808,256.1832,103.8996,4.317e-05,4.22e-06,0.0,0 STARLINK-5592,1 55741U 23028A   24115.17543388  .00000422  00000-0  43170-4 0  9996,2 55741  70.0011 170.4808 0002980 256.1832 103.8996 14.98335091 63498,6950.177,96.107,574.113,569.971,0.0
55741.0,STARLINK-5592,PAYLOAD,2024-04-24 13:49:25,14.98334475,0.0003016,70.001,169.4711,258.2667,101.8153,2.3141e-05,1.83e-06,0.0,0 STARLINK-5592,1 55741U 23028A   24115.57599349  .00000183  00000-0  23141-4 0  9998,2 55741  70.0010 169.4711 0003016 258.2667 101.8153 14.98334475 63755,6950.179,96.107,574.14,569.948,0.0
55741.0,STARLINK-5592,PAYLOAD,2024-04-25 04:14:38,14.98331134,0.0002969,70.001,167.9557,263.8404,96.2417,4.1272e-05,4e-06,0.0,0 STARLINK-5592,1 55741U 23028A   24116.17683449  .00000400  00000-0  41272-4 0  9997,2 55741  70.0010 167.9557 0002969 263.8404  96.2417 14.98331134 63640,6950.189,96.107,574.118,569.991,0.0
55741.0,STARLINK-5592,PAYLOAD,2024-04-25 12:15:18,14.98347236,0.0002687,70.0009,167.1141,258.6846,101.4011,-0.00023168,-2.857e-05,0.0,0 STARLINK-5592,1 55741U 23028A   24116.51062962 -.00002857  00000-0 -23168-3 0  9999,2 55741  70.0009 167.1141 0002687 258.6846 101.4011 14.98347236 63692,6950.14,96.106,573.872,570.137,0.0
55741.0,STARLINK-5592,PAYLOAD,2024-04-25 13:51:26,14.98349606,0.000273,70.0008,166.9456,261.0295,99.0555,-0.00027552,-3.38e-05,0.0,0 STARLINK-5592,1 55741U 23028A   24116.57738839 -.00003380  00000-0 -27552-3 0  9991,2 55741  70.0008 166.9456 0002730 261.0295  99.0555 14.98349606 63904,6950.132,96.106,573.895,570.1,0.0
55741.0,STARLINK-5592,PAYLOAD,2024-04-26 12:17:18,14.98342121,0.0002896,69.9999,164.5864,262.0853,97.9977,7.5598e-05,8.09e-06,0.0,0 STARLINK-5592,1 55741U 23028A   24117.51202381  .00000809  00000-0  75598-4 0  9999,2 55741  69.9999 164.5864 0002896 262.0853  97.9977 14.98342121 63844,6950.155,96.106,574.033,570.008,0.0
55741.0,STARLINK-5592,PAYLOAD,2024-04-26 13:53:26,14.98343937,0.000294,69.9999,164.4179,262.5722,97.5103,8.7282e-05,9.49e-06,0.0,0 STARLINK-5592,1 55741U 23028A   24117.57878173  .00000949  00000-0  87282-4 0  9991,2 55741  69.9999 164.4179 0002940 262.5722  97.5103 14.98343937 64059,6950.15,96.106,574.058,569.971,0.0
55741.0,STARLINK-5592,PAYLOAD,2024-04-27 04:18:39,14.98334223,0.000298,70.0003,162.9042,270.3636,89.7181,8.8174e-05,9.59e-06,0.0,0 STARLINK-5592,1 55741U 23028A   24118.17962682  .00000959  00000-0  88174-4 0  9999,2 55741  70.0003 162.9042 0002980 270.3636  89.7181 14.98334223 63949,6950.18,96.107,574.116,569.974,0.0
55741.0,STARLINK-5592,PAYLOAD,2024-04-27 12:19:19,14.98337047,0.0003025,70.0,162.0634,269.3611,90.7201,9.0434e-05,9.86e-06,0.0,0 STARLINK-5592,1 55741U 23028A   24118.51342319  .00000986  00000-0  90434-4 0  9998,2 55741  70.0000 162.0634 0003025 269.3611  90.7201 14.98337047 64196,6950.171,96.107,574.139,569.934,0.0
55741.0,STARLINK-5592,PAYLOAD,2024-04-27 20:20:00,14.98327186,0.000311,69.9998,161.2218,269.4799,90.6004,0.00011228,1.247e-05,0.0,0 STARLINK-5592,1 55741U 23028A   24118.84722826  .00001247  00000-0  11228-3 0  9993,2 55741  69.9998 161.2218 0003110 269.4799  90.6004 14.98327186 64240,6950.202,96.107,574.228,569.905,0.0
55741.0,STARLINK-5592,PAYLOAD,2024-04-28 04:20:41,14.98321006,0.0003226,69.9993,160.3793,271.4224,88.6565,-0.00020169,-2.498e-05,0.0,0 STARLINK-5592,1 55741U 23028A   24119.18103850 -.00002498  00000-0 -20169-3 0  9996,2 55741  69.9993 160.3793 0003226 271.4224  88.6565 14.98321006 64094,6950.221,96.108,574.328,569.844,0.0
55741.0,STARLINK-5592,PAYLOAD,2024-04-28 12:21:22,14.98304213,0.0003077,70.0004,159.537,271.988,88.0927,6.1476e-05,6.4e-06,0.0,0 STARLINK-5592,1 55741U 23028A   24119.51484459  .00000640  00000-0  61476-4 0  9992,2 55741  70.0004 159.5370 0003077 271.9880  88.0927 14.98304213 64141,6950.273,96.109,574.276,569.999,0.0
55741.0,STARLINK-5592,PAYLOAD,2024-04-28 20:22:02,14.98324424,0.0003448,69.999,158.6958,257.7667,102.3106,-0.00013616,-1.717e-05,0.0,0 STARLINK-5592,1 55741U 23028A   24119.84863587 -.00001717  00000-0 -13616-3 0  9991,2 55741  69.9990 158.6958 0003448 257.7667 102.3106 14.98324424 64191,6950.21,96.107,574.472,569.679,0.0
55741.0,STARLINK-5592,PAYLOAD,2024-04-29 12:23:22,14.98325267,0.0003084,69.9995,157.0126,270.9401,89.1404,-6.8069e-05,-9.05e-06,0.0,0 STARLINK-5592,1 55741U 23028A   24120.51623752 -.00000905  00000-0 -68069-4 0  9996,2 55741  69.9995 157.0126 0003084 270.9401  89.1404 14.98325267 64497,6950.208,96.107,574.216,569.929,0.0
55741.0,STARLINK-5592,PAYLOAD,2024-04-30 04:24:43,14.9832014,0.0003185,69.999,155.3296,270.5572,89.5222,0.0001765,2.013e-05,0.0,0 STARLINK-5592,1 55741U 23028A   24121.18383646  .00002013  00000-0  17650-3 0  9994,2 55741  69.9990 155.3296 0003185 270.5572  89.5222 14.98320140 64394,6950.223,96.108,574.302,569.875,0.0
55741.0,STARLINK-5592,PAYLOAD,2024-04-30 12:25:23,14.98323837,0.0003224,69.999,154.488,270.4865,89.5925,0.00016257,1.847e-05,0.0,0 STARLINK-5592,1 55741U 23028A   24121.51763644  .00001847  00000-0  16257-3 0  9997,2 55741  69.9990 154.4880 0003224 270.4865  89.5925 14.98323837 64645,6950.212,96.107,574.318,569.836,0.0
55741.0,STARLINK-5592,PAYLOAD,2024-04-30 18:49:55,14.98327759,0.0003229,69.999,153.8147,270.5865,89.4924,0.00014884,1.683e-05,0.0,0 STARLINK-5592,1 55741U 23028A   24121.78467509  .00001683  00000-0  14884-3 0  9999,2 55741  69.9990 153.8147 0003229 270.5865  89.4924 14.98327759 64689,6950.2,96.107,574.309,569.821,0.0
55741.0,STARLINK-5592,PAYLOAD,2024-05-01 04:26:44,14.98332842,0.0003231,69.9989,152.8048,270.4718,89.6071,0.00014591,1.648e-05,0.0,0 STARLINK-5592,1 55741U 23028A   24122.18523208  .00001648  00000-0  14591-3 0  9999,2 55741  69.9989 152.8048 0003231 270.4718  89.6071 14.98332842 64544,6950.184,96.107,574.295,569.803,0.0
55741.0,STARLINK-5592,PAYLOAD,2024-05-01 06:02:52,14.98333349,0.0003227,69.9989,152.6365,270.4805,89.5984,0.00014813,1.675e-05,0.0,0 STARLINK-5592,1 55741U 23028A   24122.25199160  .00001675  00000-0  14813-3 0  9990,2 55741  69.9989 152.6365 0003227 270.4805  89.5984 14.98333349 64754,6950.183,96.107,574.29,569.805,0.0
55741.0,STARLINK-5592,PAYLOAD,2024-05-02 04:28:44,14.98336369,0.0003295,69.9985,150.2797,270.5509,89.5272,3.9644e-05,3.8e-06,0.0,0 STARLINK-5592,1 55741U 23028A   24123.18662902  .00000380  00000-0  39644-4 0  9994,2 55741  69.9985 150.2797 0003295 270.5509  89.5272 14.98336369 64698,6950.173,96.107,574.328,569.748,0.0
55741.0,STARLINK-5592,PAYLOAD,2024-05-02 10:53:16,14.98337392,0.0003287,69.9985,149.6064,270.5773,89.501,4.7382e-05,4.72e-06,0.0,0 STARLINK-5592,1 55741U 23028A   24123.45366687  .00000472  00000-0  47382-4 0  9995,2 55741  69.9985 149.6064 0003287 270.5773  89.5010 14.98337392 64935,6950.17,96.107,574.32,569.751,0.0
55741.0,STARLINK-5592,PAYLOAD,2024-05-03 04:30:45,14.98335441,0.0003209,69.9985,147.7551,269.7191,90.3601,-3.4519e-05,-5.05e-06,0.0,0 STARLINK-5592,1 55741U 23028A   24124.18802700 -.00000505  00000-0 -34519-4 0  9994,2 55741  69.9985 147.7551 0003209 269.7191  90.3601 14.98335441 64842,6950.176,96.107,574.271,569.811,0.0
55741.0,STARLINK-5592,PAYLOAD,2024-05-03 10:55:17,14.98336683,0.0003212,69.9985,147.0817,269.8504,90.2287,-2.4602e-05,-3.87e-06,0.0,0 STARLINK-5592,1 55741U 23028A   24124.45506471 -.00000387  00000-0 -24602-4 0  9990,2 55741  69.9985 147.0817 0003212 269.8504  90.2287 14.98336683 65088,6950.172,96.107,574.27,569.805,0.0
55741.0,STARLINK-5592,PAYLOAD,2024-05-03 18:55:58,14.98331796,0.0003228,69.9984,146.24,270.5961,89.4828,-2.8545e-05,-4.34e-06,0.0,0 STARLINK-5592,1 55741U 23028A   24124.78886631 -.00000434  00000-0 -28545-4 0  9998,2 55741  69.9984 146.2400 0003228 270.5961  89.4828 14.98331796 65136,6950.187,96.107,574.296,569.809,0.0
55741.0,STARLINK-5592,PAYLOAD,2024-05-04 04:32:46,14.98326496,0.0003198,69.9984,145.23,270.1547,89.9245,-7.8605e-05,-1.031e-05,0.0,0 STARLINK-5592,1 55741U 23028A   24125.18943117 -.00001031  00000-0 -78605-4 0  9992,2 55741  69.9984 145.2300 0003198 270.1547  89.9245 14.98326496 64998,6950.204,96.107,574.291,569.846,0.0
55741.0,STARLINK-5592,PAYLOAD,2024-05-05 04:34:47,14.98326491,0.0003219,69.9984,142.7051,270.1535,89.9255,-2.6872e-05,-4.14e-06,0.0,0 STARLINK-5592,1 55741U 23028A   24126.19083179 -.00000414  00000-0 -26872-4 0  9990,2 55741  69.9984 142.7051 0003219 270.1535  89.9255 14.98326491 65148,6950.204,96.107,574.306,569.831,0.0
55741.0,STARLINK-5592,PAYLOAD,2024-05-05 10:59:20,14.9832728,0.0003224,69.9985,142.0319,270.2883,89.7907,-2.5417e-05,-3.96e-06,0.0,0 STARLINK-5592,1 55741U 23028A   24126.45787188 -.00000396  00000-0 -25417-4 0  9993,2 55741  69.9985 142.0319 0003224 270.2883  89.7907 14.98327280 65387,6950.201,96.107,574.307,569.826,0.0
55741.0,STARLINK-5592,PAYLOAD,2024-05-06 04:36:48,14.98325468,0.0003226,69.9985,140.1805,270.2353,89.8436,7.4066e-05,7.91e-06,0.0,0 STARLINK-5592,1 55741U 23028A   24127.19223218  .00000791  00000-0  74066-4 0  9995,2 55741  69.9985 140.1805 0003226 270.2353  89.8436 14.98325468 65294,6950.207,96.107,574.314,569.83,0.0
55741.0,STARLINK-5592,PAYLOAD,2024-05-06 11:01:21,14.98327252,0.0003227,69.9984,139.5069,270.3326,89.7464,8.2657e-05,8.93e-06,0.0,0 STARLINK-5592,1 55741U 23028A   24127.45927149  .00000893  00000-0  82657-4 0  9996,2 55741  69.9984 139.5069 0003227 270.3326  89.7464 14.98327252 65539,6950.201,96.107,574.309,569.824,0.0
